NORAD_CAT_ID,OBJECT_NAME,OBJECT_TYPE,EPOCH,MEAN_MOTION,ECCENTRICITY,INCLINATION,RA_OF_ASC_NODE,ARG_OF_PERICENTER,MEAN_ANOMALY,BSTAR,MEAN_MOTION_DOT,MEAN_MOTION_DDOT,TLE_LINE0,TLE_LINE1,TLE_LINE2,SEMIMAJOR_AXIS,PERIOD,APOGEE,PERIGEE,DECAYED
52835.0,STARLINK-4080,PAYLOAD,2022-08-08 22:00:00,15.23222949,0.0001526,53.2175,149.7487,62.023,125.872,-0.05123,-0.01134438,0.0,0 STARLINK-4080,1 52835U 22062F   22220.91667824 -.01134438  00000-0 -51230-1 0  9994,2 52835  53.2175 149.7487 0001526  62.0230 125.8720 15.23222949  1303,6874.264,94.536,497.17800000000005,495.08,0.0
52835.0,STARLINK-4080,PAYLOAD,2022-08-09 06:00:00,15.22416748,0.0001395,53.2173,148.2197,77.4733,138.8109,-0.0521679999999999,-0.01128275,0.0,0 STARLINK-4080,1 52835U 22062F   22221.25001157 -.01128275  00000-0 -52168-1 0  9996,2 52835  53.2173 148.2197 0001395  77.4733 138.8109 15.22416748  8241,6876.69,94.586,499.515,497.596,0.0
52835.0,STARLINK-4080,PAYLOAD,2022-08-09 14:00:01,15.21616415,0.0001389,53.2174,146.6892,68.3133,175.3954,-0.05365,-0.01132761,0.0,0 STARLINK-4080,1 52835U 22062F   22221.58334491 -.01132761  00000-0 -53650-1 0  9994,2 52835  53.2174 146.6892 0001389  68.3133 175.3954 15.21616415  1308,6879.102,94.636,501.922,500.011,0.0
52835.0,STARLINK-4080,PAYLOAD,2022-08-09 22:00:00,15.20813966,0.0001515,53.2174,145.1631,55.3259,214.8415,-0.0549659999999999,-0.0113337,0.0,0 STARLINK-4080,1 52835U 22062F   22221.91667824 -.01133370  00000-0 -54966-1 0  9998,2 52835  53.2174 145.1631 0001515  55.3259 214.8415 15.20813966  8340,6881.521,94.686,504.429,502.344,0.0
52835.0,STARLINK-4080,PAYLOAD,2022-08-10 14:00:01,15.19206948,0.0001233,53.2174,142.1148,69.545,250.6477,-0.057517,-0.01131521,0.0,0 STARLINK-4080,1 52835U 22062F   22222.58334491 -.01131521  00000-0 -57517-1 0  9994,2 52835  53.2174 142.1148 0001233  69.5450 250.6477 15.19206948  1306,6886.373000000001,94.786,509.087,507.389,0.0
52835.0,STARLINK-4080,PAYLOAD,2022-08-10 22:00:00,15.18405864,0.0001385,53.2175,140.5943,54.9047,288.8517,-0.0590179999999999,-0.01134117,0.0,0 STARLINK-4080,1 52835U 22062F   22222.91667824 -.01134117  00000-0 -59018-1 0  9992,2 52835  53.2175 140.5943 0001385  54.9047 288.8517 15.18405864  1305,6888.795,94.836,511.614,509.706,0.0
52835.0,STARLINK-4080,PAYLOAD,2022-08-11 14:00:01,15.16797696,0.0001274999999999,53.2174,137.5571,59.4979,328.4955,-0.061624,-0.01130681,0.0,0 STARLINK-4080,1 52835U 22062F   22223.58334491 -.01130681  00000-0 -61624-1 0  9995,2 52835  53.2174 137.5571 0001275  59.4979 328.4955 15.16797696  1301,6893.663000000001,94.937,516.4069999999998,514.649,0.0
52835.0,STARLINK-4080,PAYLOAD,2022-08-11 22:00:00,15.15997208,0.0001379,53.2175,136.0426,57.8509,350.8114,-0.063271,-0.01134256,0.0,0 STARLINK-4080,1 52835U 22062F   22223.91667824 -.01134256  00000-0 -63271-1 0  9993,2 52835  53.2175 136.0426 0001379  57.8509 350.8114 15.15997208  8652,6896.09,94.987,518.906,517.004,0.0
52835.0,STARLINK-4080,PAYLOAD,2022-08-12 14:00:01,15.14388982,0.0001421,53.2174,133.0163,56.4018,30.7087,-0.066006,-0.01130566,0.0,0 STARLINK-4080,1 52835U 22062F   22224.58334491 -.01130566  00000-0 -66006-1 0  9997,2 52835  53.2174 133.0163 0001421  56.4018  30.7087 15.14388982  1304,6900.971,95.088,523.817,521.856,0.0
52835.0,STARLINK-4080,PAYLOAD,2022-08-12 20:00:01,15.13788139,0.000157,53.2176,131.8844,42.9714,327.6236,-0.067256,-0.01132405,0.0,0 STARLINK-4080,1 52835U 22062F   22224.83335648 -.01132405  00000-0 -67256-1 0  9992,2 52835  53.2176 131.8844 0001570  42.9714 327.6236 15.13788139  8797,6902.797,95.126,525.746,523.578,0.0
52835.0,STARLINK-4080,PAYLOAD,2022-08-12 22:00:01,15.13587431,0.0001783,53.2175,131.5075,42.3069,62.6414,-0.0676549999999999,-0.01132695,0.0,0 STARLINK-4080,1 52835U 22062F   22224.91668981 -.01132695  00000-0 -67655-1 0  9994,2 52835  53.2175 131.5075 0001783  42.3069  62.6414 15.13587431  1308,6903.406999999997,95.138,526.503,524.0409999999998,0.0
52835.0,STARLINK-4080,PAYLOAD,2022-08-13 14:00:01,15.11980732,0.0001525,53.2174,128.4924,57.9074,79.6366,-0.070684,-0.01131175,0.0,0 STARLINK-4080,1 52835U 22062F   22225.58334491 -.01131175  00000-0 -70684-1 0  9992,2 52835  53.2174 128.4924 0001525  57.9074  79.6366 15.11980732  1300,6908.297,95.239,531.216,529.109,0.0
52835.0,STARLINK-4080,PAYLOAD,2022-08-13 22:00:00,15.11177557,0.0001606,53.2175,126.9893,57.5417,94.8832,-0.072249,-0.01130613,0.0,0 STARLINK-4080,1 52835U 22062F   22225.91667824 -.01130613  00000-0 -72249-1 0  9993,2 52835  53.2175 126.9893 0001606  57.5417  94.8832 15.11177557  1306,6910.745,95.29,533.719,531.5,0.0
52835.0,STARLINK-4080,PAYLOAD,2022-08-14 14:00:01,15.09438924,0.0001717,53.2174,123.9859,53.3079,126.0059,-0.044338,-0.00671018,0.0,0 STARLINK-4080,1 52835U 22062F   22226.58334491 -.00671018  00000-0 -44338-1 0  9994,2 52835  53.2174 123.9859 0001717  53.3079 126.0059 15.09438924  9059,6916.05,95.4,539.1030000000002,536.7280000000002,0.0
52835.0,STARLINK-4080,PAYLOAD,2022-08-14 22:00:00,15.08844771,0.0001854,53.2176,122.4896,45.7597,145.5964,-0.00088917,-0.00014413,0.0,0 STARLINK-4080,1 52835U 22062F   22226.91667824 -.00014413  00000-0 -88917-3 0  9993,2 52835  53.2176 122.4896 0001854  45.7597 145.5964 15.08844771  1309,6917.866,95.437,541.013,538.448,0.0
52835.0,STARLINK-4080,PAYLOAD,2022-08-15 00:00:00,15.08822858,0.0001115,53.2157,122.1247,47.8302,236.3254,0.0012163,0.00019113,0.0,0 STARLINK-4080,1 52835U 22062F   22227.00001157  .00019113  00000-0  12163-2 0  9994,2 52835  53.2157 122.1247 0001115  47.8302 236.3254 15.08822858  9112,6917.933000000001,95.439,540.569,539.026,0.0
52835.0,STARLINK-4080,PAYLOAD,2022-08-15 14:00:01,15.08832062,9.7e-05,53.2151,119.5042,57.2351,157.2203,0.00299,0.00047609,0.0,0 STARLINK-4080,1 52835U 22062F   22227.58334491  .00047609  00000-0  29900-2 0  9995,2 52835  53.2151 119.5042 0000970  57.2351 157.2203 15.08832062  1302,6917.905,95.438,540.441,539.099,0.0
52835.0,STARLINK-4080,PAYLOAD,2022-08-15 22:00:00,15.08867437,0.0001122,53.2151,118.0092,53.3498,172.7076,-0.0012649,-0.00020377,0.0,0 STARLINK-4080,1 52835U 22062F   22227.91667824 -.00020377  00000-0 -12649-2 0  9998,2 52835  53.2151 118.0092 0001122  53.3498 172.7076 15.08867437  1304,6917.797,95.436,540.438,538.885,0.0
52835.0,STARLINK-4080,PAYLOAD,2022-08-16 06:00:02,15.0886941,0.0001209,53.2147,116.5127,50.1071,187.6315,-0.0025881999999999,-0.00041276,0.0,0 STARLINK-4080,1 52835U 22062F   22228.25002315 -.00041276  00000-0 -25882-2 0  9998,2 52835  53.2147 116.5127 0001209  50.1071 187.6315 15.08869410  9301,6917.79,95.436,540.492,538.819,0.0
52835.0,STARLINK-4080,PAYLOAD,2022-08-16 14:00:01,15.08821862,0.0001143,53.2146,115.0146,61.5852,187.7098,0.0029536,0.00047009,0.0,0 STARLINK-4080,1 52835U 22062F   22228.58334491  .00047009  00000-0  29536-2 0  9995,2 52835  53.2146 115.0146 0001143  61.5852 187.7098 15.08821862  1305,6917.936,95.439,540.592,539.01,0.0
52835.0,STARLINK-4080,PAYLOAD,2022-08-16 22:00:00,15.08853178,0.00013,53.2147,113.5197,56.7126,204.1737,-0.00093041,-0.0001506999999999,0.0,0 STARLINK-4080,1 52835U 22062F   22228.91667824 -.00015070  00000-0 -93041-3 0  9999,2 52835  53.2147 113.5197 0001300  56.7126 204.1737 15.08853178  1309,6917.84,95.437,540.604,538.806,0.0
52835.0,STARLINK-4080,PAYLOAD,2022-08-17 16:00:00,15.08828461,0.0001368,53.2149,110.1511,65.3807,311.6140000000001,0.0017817,0.00028173,0.0,0 STARLINK-4080,1 52835U 22062F   22229.66667824  .00028173  00000-0  17817-2 0  9994,2 52835  53.2149 110.1511 0001368  65.3807 311.6140 15.08828461  9521,6917.916,95.438,540.727,538.8340000000002,0.0
52835.0,STARLINK-4080,PAYLOAD,2022-08-18 14:00:01,15.08829201,0.0001495,53.2151,106.0355,65.4511,253.4713,0.0020868,0.0003307,0.0,0 STARLINK-4080,1 52835U 22062F   22230.58334491  .00033070  00000-0  20868-2 0  9990,2 52835  53.2151 106.0355 0001495  65.4511 253.4713 15.08829201  1308,6917.913000000001,95.438,540.813,538.744,0.0
52835.0,STARLINK-4080,PAYLOAD,2022-08-18 22:00:00,15.08854759,0.0001638,53.2153,104.5407,60.1648,270.3544,-0.00090326,-0.00014641,0.0,0 STARLINK-4080,1 52835U 22062F   22230.91667824 -.00014641  00000-0 -90326-3 0  9998,2 52835  53.2153 104.5407 0001638  60.1648 270.3544 15.08854759  9701,6917.835,95.437,540.8330000000002,538.567,0.0
52835.0,STARLINK-4080,PAYLOAD,2022-08-19 14:00:01,15.08795058,0.0001599,53.2158,101.5462,66.8129,286.9176,0.0025104,0.00039842,0.0,0 STARLINK-4080,1 52835U 22062F   22231.58334491  .00039842  00000-0  25104-2 0  9992,2 52835  53.2158 101.5462 0001599  66.8129 286.9176 15.08795058  1305,6918.018,95.44,540.989,538.7769999999998,0.0
52835.0,STARLINK-4080,PAYLOAD,2022-08-19 22:00:00,15.08813275,0.0001751999999999,53.216,100.0516,60.8132,304.468,-0.00054862,-9.002e-05,0.0,0 STARLINK-4080,1 52835U 22062F   22231.91667824 -.00009002  00000-0 -54862-3 0  9999,2 52835  53.2160 100.0516 0001752  60.8132 304.4680 15.08813275  1309,6917.962,95.439,541.039,538.615,0.0
52835.0,STARLINK-4080,PAYLOAD,2022-08-20 08:00:01,15.088278699999998,0.0001659,53.2163,98.1803,63.0646,46.6644,-0.001253,-0.00020168,0.0,0 STARLINK-4080,1 52835U 22062F   22232.33334491 -.00020168  00000-0 -12530-2 0  9998,2 52835  53.2163  98.1803 0001659  63.0646  46.6644 15.08827870  9926,6917.917,95.438,540.93,538.635,0.0
52835.0,STARLINK-4080,PAYLOAD,2022-08-20 14:00:01,15.08810721,0.0001636999999999,53.2164,97.0574,68.0589,320.3571,0.002712,0.00043103,0.0,0 STARLINK-4080,1 52835U 22062F   22232.58334491  .00043103  00000-0  27120-2 0  9998,2 52835  53.2164  97.0574 0001637  68.0589 320.3571 15.08810721  1309,6917.97,95.439,540.967,538.702,0.0
52835.0,STARLINK-4080,PAYLOAD,2022-08-20 22:00:00,15.08834223,0.0001768,53.2164,95.5628,61.8532,338.1402,-0.00039753,-6.608e-05,0.0,0 STARLINK-4080,1 52835U 22062F   22232.91667824 -.00006608  00000-0 -39753-3 0  9991,2 52835  53.2164  95.5628 0001768  61.8532 338.1402 15.08834223 10017,6917.898,95.438,540.986,538.54,0.0
